KUIPER-00035            
1 63748U 25088AA  25241.72018858 -.00039295  00000+0 -51249-2 0  9996
2 63748  51.9004 242.9879 0005861 161.3386 198.7793 14.80167638 19084
KUIPER-00037            
1 63749U 25088AB  25241.72173912  .00001756  00000+0  25940-3 0  9999
2 63749  51.8992 241.9463 0006960 101.2682 258.9063 14.79948254 19887
KUIPER-00038            
1 63750U 25088AC  25241.91668981 -.00837693  00000+0 -67509-1 0  9991
2 63750  51.8995 227.2423 0006281 159.4012 218.7188 15.02203947  4474
KUIPER-00039            
1 64500U 25134A   25241.91668981 -.00568727  00000+0 -25191-1 0  9997
2 64500  51.8778   6.3876 0010340   3.1063 205.7211 15.23260638  5609
KUIPER-00040            
1 64501U 25134B   25241.91668981 -.00033250  00000+0 -33501-2 0  9991
2 64501  51.8935  12.6730 0017552 357.3595 267.2941 14.90520611  5808
KUIPER-00041            
1 64502U 25134C   25241.91668981 -.00009474  00000+0 -10565-2 0  9998
2 64502  51.8965  13.7689 0014084 358.5251  35.4515 14.85603626  4360
KUIPER-00042            
1 64503U 25134D   25241.91668981 -.00006734  00000+0 -51385-3 0  9991
2 64503  51.8877  10.6441 0013642   0.4899 264.2940 14.99977999  5823
KUIPER-00043            
1 64504U 25134E   25241.91668981 -.00029865  00000+0 -13524-2 0  9994
2 64504  51.8815   7.0982 0007916   3.1966 249.3978 15.20132793  4811
